NORAD_CAT_ID,OBJECT_NAME,OBJECT_TYPE,EPOCH,MEAN_MOTION,ECCENTRICITY,INCLINATION,RA_OF_ASC_NODE,ARG_OF_PERICENTER,MEAN_ANOMALY,BSTAR,MEAN_MOTION_DOT,MEAN_MOTION_DDOT,TLE_LINE0,TLE_LINE1,TLE_LINE2,SEMIMAJOR_AXIS,PERIOD,APOGEE,PERIGEE,DECAYED
54783.0,STARLINK-5439,PAYLOAD,2024-02-11 09:25:43,15.08846117,0.0001318,53.2154,188.743,86.7397,273.3746,6.4011e-05,7.31e-06,0.0,0 STARLINK-5439,1 54783U 22175AB  24042.39286506  .00000731  00000-0  64011-4 0  9992,2 54783  53.2154 188.7430 0001318  86.7397 273.3746 15.08846117 63645,6917.862,95.437,540.638,538.815,0.0
54783.0,STARLINK-5439,PAYLOAD,2024-02-11 14:11:52,15.08848472,0.0001351,53.2149,187.8518,81.369,278.7455,9.4571e-05,1.218e-05,0.0,0 STARLINK-5439,1 54783U 22175AB  24042.59158360  .00001218  00000-0  94571-4 0  9995,2 54783  53.2149 187.8518 0001351  81.3690 278.7455 15.08848472 65835,6917.854,95.437,540.654,538.785,0.0
54783.0,STARLINK-5439,PAYLOAD,2024-02-11 17:22:38,15.08853917,0.0001315,53.2155,187.2565,78.7156,281.3984,0.00016446,2.331e-05,0.0,0 STARLINK-5439,1 54783U 22175AB  24042.72406040  .00002331  00000-0  16446-3 0  9992,2 54783  53.2155 187.2565 0001315  78.7156 281.3984 15.08853917 65854,6917.838,95.437,540.613,538.793,0.0
54783.0,STARLINK-5439,PAYLOAD,2024-02-12 14:02:39,15.08847048,0.0001712,53.2162,183.3941,62.7534,297.3632,-9.076e-05,-1.733e-05,0.0,0 STARLINK-5439,1 54783U 22175AB  24043.58518443 -.00001733  00000-0 -90760-4 0  9997,2 54783  53.2162 183.3941 0001712  62.7534 297.3632 15.08847048 65980,6917.859,95.437,540.908,538.54,0.0
54783.0,STARLINK-5439,PAYLOAD,2024-02-12 18:48:49,15.0884976,0.0001487,53.2167,182.4959,70.4028,289.7124,5.3866e-05,5.7e-06,0.0,0 STARLINK-5439,1 54783U 22175AB  24043.78390096  .00000570  00000-0  53866-4 0  9993,2 54783  53.2167 182.4959 0001487  70.4028 289.7124 15.08849760 63855,6917.851,95.437,540.744,538.687,0.0
54783.0,STARLINK-5439,PAYLOAD,2024-02-13 02:45:45,15.08838066,0.0001659,53.2162,181.0081,100.2399,259.878,-7.7343e-05,-1.519e-05,0.0,0 STARLINK-5439,1 54783U 22175AB  24044.11510475 -.00001519  00000-0 -77343-4 0  9998,2 54783  53.2162 181.0081 0001659 100.2399 259.8780 15.08838066 63904,6917.886,95.438,540.899,538.604,0.0
54783.0,STARLINK-5439,PAYLOAD,2024-02-13 15:28:50,15.08842693,0.0001433,53.2168,178.6327,82.7436,277.3719,1.1169e-05,-1.1e-06,0.0,0 STARLINK-5439,1 54783U 22175AB  24044.64502533 -.00000110  00000-0  11169-4 0  9991,2 54783  53.2168 178.6327 0001433  82.7436 277.3719 15.08842693 66148,6917.872,95.437,540.728,538.746,0.0
54783.0,STARLINK-5439,PAYLOAD,2024-02-14 12:08:51,15.08845714,0.0001387,53.2162,174.7679,88.155,271.9601,9.9734e-05,1.3e-05,0.0,0 STARLINK-5439,1 54783U 22175AB  24045.50614654  .00001300  00000-0  99734-4 0  9990,2 54783  53.2162 174.7679 0001387  88.1550 271.9601 15.08845714 64116,6917.863,95.437,540.687,538.768,0.0
54783.0,STARLINK-5439,PAYLOAD,2024-02-14 15:19:37,15.08851036,0.0001333,53.2158,174.1711,85.268,274.8464,0.00019827,2.87e-05,0.0,0 STARLINK-5439,1 54783U 22175AB  24045.63862326  .00002870  00000-0  19827-3 0  9992,2 54783  53.2158 174.1711 0001333  85.2680 274.8464 15.08851036 66299,6917.847,95.437,540.634,538.79,0.0
54783.0,STARLINK-5439,PAYLOAD,2024-02-15 11:59:38,15.08830805,0.0001649,53.2169,170.3087,103.2501,256.8675,-7.3103e-05,-1.451e-05,0.0,0 STARLINK-5439,1 54783U 22175AB  24046.49975363 -.00001451  00000-0 -73103-4 0  9997,2 54783  53.2169 170.3087 0001649 103.2501 256.8675 15.08830805 64268,6917.908,95.438,540.914,538.633,0.0
54783.0,STARLINK-5439,PAYLOAD,2024-02-15 13:35:01,15.08832698,0.0001738,53.2171,170.0112,103.9572,256.1613,-3.4119e-05,-8.31e-06,0.0,0 STARLINK-5439,1 54783U 22175AB  24046.56599349 -.00000831  00000-0 -34119-4 0  9996,2 54783  53.2171 170.0112 0001738 103.9572 256.1613 15.08832698 66439,6917.903,95.438,540.97,538.565,0.0
54783.0,STARLINK-5439,PAYLOAD,2024-02-15 15:10:24,15.08834157,0.0001693,53.217,169.7144,101.9367,258.1815,-3.8215e-05,-8.96e-06,0.0,0 STARLINK-5439,1 54783U 22175AB  24046.63223300 -.00000896  00000-0 -38215-4 0  9997,2 54783  53.2170 169.7144 0001693 101.9367 258.1815 15.08834157 66447,6917.898,95.438,540.934,538.592,0.0
54783.0,STARLINK-5439,PAYLOAD,2024-02-16 00:42:43,15.08840824,0.0001565,53.2171,167.9314,97.3151,262.8019,0.00011608,1.56e-05,0.0,0 STARLINK-5439,1 54783U 22175AB  24047.02967175  .00001560  00000-0  11608-3 0  9999,2 54783  53.2171 167.9314 0001565  97.3151 262.8019 15.08840824 64347,6917.878,95.438,540.826,538.66,0.0
54783.0,STARLINK-5439,PAYLOAD,2024-02-16 15:01:11,15.08848963,0.0001605,53.2166,165.2554,102.7214,257.3958,0.00033516,5.051e-05,0.0,0 STARLINK-5439,1 54783U 22175AB  24047.62582889  .00005051  00000-0  33516-3 0  9991,2 54783  53.2166 165.2554 0001605 102.7214 257.3958 15.08848963 66596,6917.853,95.437,540.828,538.608,0.0
54783.0,STARLINK-5439,PAYLOAD,2024-02-17 11:41:12,15.08835539,0.0001564,53.2158,161.39,107.1154,253.0009,-1.277e-05,-4.91e-06,0.0,0 STARLINK-5439,1 54783U 22175AB  24048.48695366 -.00000491  00000-0 -12770-4 0  9996,2 54783  53.2158 161.3900 0001564 107.1154 253.0009 15.08835539 64565,6917.894,95.438,540.841,538.677,0.0
54783.0,STARLINK-5439,PAYLOAD,2024-02-17 14:51:58,15.08845675,0.0001581,53.2164,160.7946,91.797,268.3203,0.00023298,3.422e-05,0.0,0 STARLINK-5439,1 54783U 22175AB  24048.61943152  .00003422  00000-0  23298-3 0  9991,2 54783  53.2164 160.7946 0001581  91.7970 268.3203 15.08845675 66747,6917.863,95.437,540.822,538.634,0.0
54783.0,STARLINK-5439,PAYLOAD,2024-02-17 16:27:21,15.08849659,0.0001583,53.2163,160.4973,102.337,257.7799,0.00029717,4.446e-05,0.0,0 STARLINK-5439,1 54783U 22175AB  24048.68566951  .00004446  00000-0  29717-3 0  9995,2 54783  53.2163 160.4973 0001583 102.3370 257.7799 15.08849659 64597,6917.851,95.437,540.811,538.621,0.0
54783.0,STARLINK-5439,PAYLOAD,2024-02-18 00:24:18,15.08838476,0.0001948,53.2165,159.0098,85.3969,274.7246,5.69e-05,6.17e-06,0.0,0 STARLINK-5439,1 54783U 22175AB  24049.01687544  .00000617  00000-0  56900-4 0  9996,2 54783  53.2165 159.0098 0001948  85.3969 274.7246 15.08838476 64647,6917.885,95.438,541.098,538.402,0.0
54783.0,STARLINK-5439,PAYLOAD,2024-02-18 14:42:46,15.08834856,0.0001748,53.2172,156.3339,87.5704,272.5488,-8.2463e-06,-4.19e-06,0.0,0 STARLINK-5439,1 54783U 22175AB  24049.61303975 -.00000419  00000-0 -82463-5 0  9991,2 54783  53.2172 156.3339 0001748  87.5704 272.5488 15.08834856 66893,6917.896,95.438,540.97,538.552,0.0
54783.0,STARLINK-5439,PAYLOAD,2024-02-19 12:58:10,15.08838417,0.0001465,53.2161,152.1696,93.3368,266.7791,0.00016123,2.279e-05,0.0,0 STARLINK-5439,1 54783U 22175AB  24050.54040083  .00002279  00000-0  16123-3 0  9995,2 54783  53.2161 152.1696 0001465  93.3368 266.7791 15.08838417 67034,6917.885,95.438,540.764,538.737,0.0
54783.0,STARLINK-5439,PAYLOAD,2024-02-20 12:48:57,15.08837931,0.0001382,53.216,147.7089,95.2479,264.8671,0.00051583,7.931e-05,0.0,0 STARLINK-5439,1 54783U 22175AB  24051.53400444  .00007931  00000-0  51583-3 0  9995,2 54783  53.2160 147.7089 0001382  95.2479 264.8671 15.08837931 65024,6917.887,95.438,540.708,538.796,0.0
54783.0,STARLINK-5439,PAYLOAD,2024-02-21 12:39:44,15.08851141,0.0001327,53.217,143.2481,98.1066,262.0076,3.5013e-05,2.7e-06,0.0,0 STARLINK-5439,1 54783U 22175AB  24052.52759394  .00000270  00000-0  35013-4 0  9996,2 54783  53.2170 143.2481 0001327  98.1066 262.0076 15.08851141 67339,6917.846,95.437,540.629,538.793,0.0
54783.0,STARLINK-5439,PAYLOAD,2024-02-22 12:30:30,15.08830619,0.0001308,53.2169,138.7883,92.4477,267.6665,-0.00028756,-4.86e-05,0.0,0 STARLINK-5439,1 54783U 22175AB  24053.52118925 -.00004860  00000-0 -28756-3 0  9992,2 54783  53.2169 138.7883 0001308  92.4477 267.6665 15.08830619 65323,6917.909,95.438,540.679,538.869,0.0
54783.0,STARLINK-5439,PAYLOAD,2024-02-23 12:21:20,15.08814893,0.0001419,53.2164,134.329,93.8134,266.302,-0.00024308,-4.152e-05,0.0,0 STARLINK-5439,1 54783U 22175AB  24054.51482165 -.00004152  00000-0 -24308-3 0  9995,2 54783  53.2164 134.3290 0001419  93.8134 266.3020 15.08814893 65473,6917.957,95.439,540.804,538.84,0.0
54783.0,STARLINK-5439,PAYLOAD,2024-02-23 21:53:39,15.08826473,0.0001434,53.2171,132.5434,92.1679,267.9477,-0.00015697,-2.784e-05,0.0,0 STARLINK-5439,1 54783U 22175AB  24054.91225901 -.00002784  00000-0 -15697-3 0  9992,2 54783  53.2171 132.5434 0001434  92.1679 267.9477 15.08826473 67690,6917.922,95.438,540.779,538.795,0.0
54783.0,STARLINK-5439,PAYLOAD,2024-02-24 04:15:11,15.08807753,0.0001542,53.2157,131.3525,87.0147,273.1022,0.00014153,1.963e-05,0.0,0 STARLINK-5439,1 54783U 22175AB  24055.17721961  .00001963  00000-0  14153-3 0  9990,2 54783  53.2157 131.3525 0001542  87.0147 273.1022 15.08807753 65575,6917.979,95.44,540.911,538.777,0.0
54783.0,STARLINK-5439,PAYLOAD,2024-02-24 12:12:07,15.08823484,0.0001587,53.2158,129.8674,92.4954,267.622,0.00029018,4.331e-05,0.0,0 STARLINK-5439,1 54783U 22175AB  24055.50841477  .00004331  00000-0  29018-3 0  9990,2 54783  53.2158 129.8674 0001587  92.4954 267.6220 15.08823484 65621,6917.931,95.439,540.894,538.698,0.0
54783.0,STARLINK-5439,PAYLOAD,2024-02-25 12:02:53,15.08868065,0.0001648,53.2153,125.4069,92.1497,267.9684,0.00088512,0.00013838,0.0,0 STARLINK-5439,1 54783U 22175AB  24056.50200691  .00013838  00000-0  88512-3 0  9994,2 54783  53.2153 125.4069 0001648  92.1497 267.9684 15.08868065 65770,6917.795,95.436,540.8,538.52,0.0
54783.0,STARLINK-5439,PAYLOAD,2024-02-25 13:38:16,15.08883849,0.0001652,53.2152,125.1096,91.9065,268.2117,0.0012043,0.00018953,0.0,0 STARLINK-5439,1 54783U 22175AB  24056.56824353  .00018953  00000-0  12043-2 0  9995,2 54783  53.2152 125.1096 0001652  91.9065 268.2117 15.08883849 67942,6917.746,95.435,540.754,538.469,0.0
54783.0,STARLINK-5439,PAYLOAD,2024-02-25 21:35:11,15.08866028,0.0001666,53.2147,123.623,94.7432,265.375,0.00028672,4.281e-05,0.0,0 STARLINK-5439,1 54783U 22175AB  24056.89944269  .00004281  00000-0  28672-3 0  9995,2 54783  53.2147 123.6230 0001666  94.7432 265.3750 15.08866028 67999,6917.801,95.436,540.818,538.513,0.0
